#dP2024  3  3  0  0  0.00000000      96 __u+U IGS20 FIT  IAC
## 2304      0.00000000   900.00000000 60372 0.0000000000000
+  119   C06C07C08C09C10C11C12C13C14C16C19C20C21C22C23C24C25
+        C26C27C28C29C30C32C33C34C35C36C37C38C39C40C41C42C43
+        C44C45C46E02E03E04E05E07E08E09E10E11E12E13E14E15E18
+        E19E21E24E25E26E27E30E31E33E34E36G01G02G03G04G05G06
+        G07G08G09G10G11G12G13G14G15G16G17G18G19G20G21G22G23
+        G24G25G26G27G28G29G30G31G32J02J03J04R01R02R03R04R05
+        R07R08R09R11R12R13R14R15R16R17R18R19R20R21R22R24R26
++         9  8  9  9  6  8  8  8  8  8  6  6  7  8  6  8  8
++         6  7  7  7  7  6  5  6  7  6  6  8  8  8  8  8  7
++         5  4  6  6  6  5  5  6  6  5  6  7  6  7  6  7  6
++         6  7  5  5  7  7  7  7  6  7  6  6  6  6  6  7  6
++         6  5  7  5  7  6  6  6  6  5  7  5  7  7  6  6  5
++         6  6  5  5  6  6  6  6  6  9  0  8  7  6  6  7  6
++         7  8  8  7  6  6  5  5  8  7  6  6  7  7  7  5  7
%c M  cc GPS ccc cccc cccc cccc cccc ccccc ccccc ccccc ccccc
%c cc cc ccc ccc cccc cccc cccc cccc ccccc ccccc ccccc ccccc
%f  0.0000000  0.000000000  0.00000000000  0.000000000000000
%f  0.0000000  0.000000000  0.00000000000  0.000000000000000
%i    0    0    0    0      0      0      0      0         0
%i    0    0    0    0      0      0      0      0         0
/* INFORMATION & ANALYSIS CENTER (IAC)      ULTRA-RAPID DATA
/* S/V CLOCKS ARE ALIGNED TO GNSS TIME                      
/* G:C1WC2W R:C1PC2P E:C1XC5X C:C2IC6I J:C1CC2S             
/* PCV:IGS20_2290 OL/AL:FES2004  NONE     YN ORB:CoN CLK:CoN
*  2024 03 03 14  0  0.00000000
PC06 -17666.427771  27499.030246 -26754.509583    248.097926
PC07  -8476.442446  40069.073318  -9466.196717   -896.186032
PC08   -796.755978  23399.466042  35106.214268     -7.466932
PC09 -10269.564109  26585.869149 -30819.205856   -570.053741
PC10  -2301.766574  41695.343159  -2618.967380     60.767296
PC11  -2288.969063 -16924.081346 -22002.858103    440.831722
PC12  15347.749435 -21145.005356  -9756.426308   -205.256608
PC13   7152.116796  27731.884560  31212.065233    422.122414
PC14  -8008.345586 -26453.373337   4098.515611    321.794472
PC16 -21307.190060  26760.470491 -24591.391975   -374.411991
PC19  12862.274695  21220.033420 -12711.818968   -921.927548
PC20   2857.708791  27511.737417   3578.887991   -220.176343
PC21   9838.412458 -17674.640012 -19215.903496   -961.473564
PC22  16073.277683   2317.637717 -22687.372649    -88.327896
PC23 -26895.684653  -5119.371196  -5392.430535   -777.865234
PC24  -1260.461596 -17185.342137  21925.671524    938.086986
PC25 -20563.221307 -15067.403058  11314.563386    340.424476
PC26  17533.408419  -9263.314022  19626.815503   -257.523963
PC27 -20598.625726  18792.538339   1306.089899    279.453858
PC28 -23194.260964   7129.235200 -13782.559420    212.910244
PC29  11736.374311  10975.967502  22808.767425    249.617426
PC30  -6688.072441  21706.071680  16221.494602    -32.866943
PC32  -9794.084859  17626.570141  19303.837877   -576.818293
PC33 -13004.267328 -21217.544265  12656.852176   -953.910297
PC34   5147.773395 -21309.777173 -17265.032135    382.063589
PC35  22897.192976  -7811.414940  13858.841170    419.915644
PC36  19918.270476  15689.762864 -11653.902729      5.600732
PC37 -18031.984005   8643.332397 -19451.970811   -940.982654
PC38  -9675.059079  20790.997795  35442.034630    140.436683
PC39 -25608.797637  27309.820451 -19557.208249     -7.406965
PC40 -14022.687962  37479.648832 -12842.266686    -59.110337
PC41 -16229.933144  -3237.392016  22530.241372   -899.510283
PC42  -1890.488620 -27385.637914  -5063.789969   -449.590764
PC43 -11038.414166 -11804.613990 -22760.677007     62.695870
PC44  19892.926515 -19509.275935  -1176.843915    402.137481
PC45  26876.418940   5127.869385   5543.468337    -73.604321
PC46   2318.337219  17292.449452 -21799.158885   -128.615506
PE02   -666.673406 -22651.813090  19020.950932    108.181442
PE03   8542.059479 -28053.937783   4063.816984    -97.745590
PE04   6407.321428  20921.076115 -19924.723408   -340.983097
PE05  18260.035578 -18681.828236 -13911.851609   4725.579688
PE07 -17248.007167  -2133.636350  23968.673083   -106.885976
PE08  -5784.944190 -21418.740559  19602.947341   -233.072595
PE09  17078.953991   2179.848216 -24072.975401   -357.131378
PE10  22587.454419   8190.606371  17282.809376   -606.450260
PE11  28346.258043   1733.942318   8300.219506   3205.131280
PE12  14066.236325  12907.346297  22612.791412   -932.000915
PE13 -28144.805494  -2103.639929  -8943.796359    -20.390964
PE14  -9516.393993 -21845.391550 -20996.626714     55.982464
PE15 -13534.666938 -13028.424596 -22870.492236    -89.112800
PE18  14888.229309   6501.112511  19187.192829    393.323204
PE19 -10162.603285  27732.517077  -1966.233723   -503.113512
PE21 -14817.769424   8216.088242 -24279.602034   -582.025259
PE24  22342.789757  12069.079131  15207.271055   -630.635444
PE25  15087.475398  -7811.430223  24236.047226      1.640727
PE26 -25713.836957  10250.864198  10501.529611    385.730485
PE27 -22338.387612 -11632.677554 -15547.344404   -289.401708
PE30 -16406.782763 -24505.134793   2427.621265    -56.934059
PE31  16605.722933  24404.679319  -2255.869667    -17.369053
PE33  -9411.299398  16106.896422  22987.736898      8.473153
PE34   8766.747791 -16177.204724 -23187.705328    -97.899887
PE36  26059.884651  -9858.874586  -9964.333944   -194.078309
PG01 -11754.546906 -12263.479868 -20855.889512    172.118999
PG02  -2231.886896 -14695.742277 -21514.209500   -476.244112
PG03 -10813.407064 -22825.201108  -8560.506307    229.684869
PG04   -564.023472 -22657.689324  13750.952416    305.987166
PG05    286.993104  19185.674704  18151.519680   -164.007921
PG06 -25737.764168   5858.413079   3513.653634    383.514253
PG07 -21678.568913  -7184.955250  14440.444933    -75.709974
PG08   4619.329088 -25280.485082  -5836.873770     27.555968
PG09 -11068.427847 -12200.377618  20743.519241    111.892534
PG10  18985.978377   4634.144051 -17929.125093      0.877646
PG11 -18994.930148  11846.599322  14281.531252   -595.012252
PG12   8483.625791  23576.394516  -9196.257091   -483.649157
PG13 -13544.273933  22676.954764    902.791396    630.844985
PG14 -20102.841557  -8167.388025 -15421.031949    340.979817
PG15  -1312.755699  25824.192799  -6059.544686    133.777606
PG16   6786.998172 -15248.782142  20216.743874   -349.633490
PG17 -16290.022216   1685.444411 -20522.373057    715.019967
PG18  22288.096057   6133.279340  13256.871382   -568.013055
PG19 -18096.376882  10353.595010 -16424.075717    448.805781
PG20 -10694.804656  11130.353986  21674.410792    385.311648
PG21   3098.054095 -15566.255347 -20640.820146    132.777494
PG22 -17060.179568   -733.642366 -19839.688251     21.807962
PG23  20277.436759  14980.003237  -8637.837936    168.851025
PG24    436.376371  16202.216303 -21414.713610   -440.883544
PG25  16911.914726  20669.576896   -135.592680    490.289846
PG26  15261.010371  -6233.298106  20729.776192    183.810723
PG27  12767.774172 -22260.314440   5616.453357     -8.916827
PG28  26050.192741  -5141.092012    468.043797   -151.195568
PG29   8462.296534  14543.748781  20472.326068   -605.707291
PG30 -26317.552929    424.800342   4647.500715   -424.812171
PG31  22805.157078  -9859.992361   9720.002241   -227.916937
PG32  16739.950833  -5465.712683 -19615.037828   -614.404278
PJ02 -21425.862216  21414.984282 -24720.483022     -2.536956
PJ03      0.000000      0.000000      0.000000 999999.999999
PJ04 -25994.116548  29113.626450  21912.926987     50.777195
PR01   -545.916192  25299.551414   3166.129955     78.706802
PR02   6435.825431  20478.255252 -13781.940661    -22.537652
PR03  10737.606257   3853.328043 -22767.606867     95.666820
PR04   8840.657367 -14350.602341 -19105.408257    225.964529
PR05   2419.438722 -24855.914361  -5120.144928    127.839591
PR07 -10818.526941  -2753.722936  22978.561758     77.121159
PR08  -8804.355393  14644.061762  19018.601430    -74.621117
PR09 -18199.484947 -15005.859538   9825.882181    173.261515
PR11 -15936.852193   2015.577818 -19814.122244     32.469757
PR12   2210.476739  13152.466753 -21728.689067     37.385301
PR13  16355.624965  15434.169075 -12064.313471    -44.933986
PR14  22918.470710   8444.012677   7330.473443     26.159414
PR15  14853.645059  -3040.344327  20524.083774     81.690999
PR16  -2066.359517 -12921.933736  21904.670576     23.724423
PR17  20451.268561  -4149.729605  14700.706888     65.925047
PR18  21914.112436 -12956.119429   -996.075107    130.293820
PR19  14053.195806 -15025.383743 -15076.434027   -267.999039
PR20  -6346.268803  -8354.310846 -23243.270201   -109.184037
PR21 -20512.095702   4139.352067 -14573.064265    -81.602146
PR22 -21957.329218  12826.363681   2157.703967    110.962131
PR24   7440.920045   8194.176516  22998.612986    -46.286492
PR26  -8971.632169  13722.851562  19557.758646 999999.999999
EOF
